[{"OBJECT_NAME":"STARLINK-2412","OBJECT_ID":"2021-027C","EPOCH":"2026-03-09T12:34:29.396640","MEAN_MOTION":15.30209851,"ECCENTRICITY":0.00016696,"INCLINATION":53.1611,"RA_OF_ASC_NODE":166.0484,"ARG_OF_PERICENTER":69.9486,"MEAN_ANOMALY":290.1695,"EPHEMERIS_TYPE":0,"CLASSIFICATION_TYPE":"U","NORAD_CAT_ID":48094,"ELEMENT_SET_NO":999,"REV_AT_EPOCH":27249,"BSTAR":0.00034051734,"MEAN_MOTION_DOT":9.742e-5,"MEAN_MOTION_DDOT":0},{"OBJECT_NAME":"CZ-4B DEB","OBJECT_ID":"1999-057DZ","EPOCH":"2026-03-09T09:52:12.897696","MEAN_MOTION":15.33653758,"ECCENTRICITY":0.00127381,"INCLINATION":98.4932,"RA_OF_ASC_NODE":238.6814,"ARG_OF_PERICENTER":254.7139,"MEAN_ANOMALY":105.2693,"EPHEMERIS_TYPE":0,"CLASSIFICATION_TYPE":"U","NORAD_CAT_ID":26235,"ELEMENT_SET_NO":999,"REV_AT_EPOCH":38912,"BSTAR":0.0023807093,"MEAN_MOTION_DOT":0.00078286,"MEAN_MOTION_DDOT":0}]
